[{"OBJECT_NAME":"STARLINK-4581","OBJECT_ID":"2022-101BB","EPOCH":"2026-03-09T04:43:58.363392","MEAN_MOTION":15.08835839,"ECCENTRICITY":0.00014929,"INCLINATION":53.2184,"RA_OF_ASC_NODE":56.132,"ARG_OF_PERICENTER":93.2987,"MEAN_ANOMALY":266.8176,"EPHEMERIS_TYPE":0,"CLASSIFICATION_TYPE":"U","NORAD_CAT_ID":53576,"ELEMENT_SET_NO":999,"REV_AT_EPOCH":19719,"BSTAR":-3.6941512e-5,"MEAN_MOTION_DOT":-8.76e-6,"MEAN_MOTION_DDOT":0},{"OBJECT_NAME":"ELECTRON KICK STAGE R\/B","OBJECT_ID":"2023-196B","EPOCH":"2026-03-09T10:54:03.246336","MEAN_MOTION":15.12760744,"ECCENTRICITY":0.00189263,"INCLINATION":42.0179,"RA_OF_ASC_NODE":242.1679,"ARG_OF_PERICENTER":295.0915,"MEAN_ANOMALY":64.7951,"EPHEMERIS_TYPE":0,"CLASSIFICATION_TYPE":"U","NORAD_CAT_ID":58579,"ELEMENT_SET_NO":999,"REV_AT_EPOCH":12282,"BSTAR":0.00048326039,"MEAN_MOTION_DOT":8.466e-5,"MEAN_MOTION_DDOT":0}]
